1 08820U 76039A   03242.65019654  .00000010  00000-0  10000-3 0  9669
2 08820 109.8101 207.0804 0044460 285.2205  74.3441  6.38664482381814
